[{"OBJECT_NAME":"STARLINK-32198","OBJECT_ID":"2024-133W","EPOCH":"2026-03-09T21:49:44.612832","MEAN_MOTION":15.30191124,"ECCENTRICITY":0.00012456,"INCLINATION":53.1597,"RA_OF_ASC_NODE":296.0649,"ARG_OF_PERICENTER":76.389,"MEAN_ANOMALY":283.7249,"EPHEMERIS_TYPE":0,"CLASSIFICATION_TYPE":"U","NORAD_CAT_ID":60321,"ELEMENT_SET_NO":999,"REV_AT_EPOCH":9176,"BSTAR":2.2201034e-5,"MEAN_MOTION_DOT":2.98e-6,"MEAN_MOTION_DDOT":0},{"OBJECT_NAME":"ARIANE 40 R\/B","OBJECT_ID":"1999-064C","EPOCH":"2026-03-09T18:24:37.025280","MEAN_MOTION":15.31364882,"ECCENTRICITY":0.00050095,"INCLINATION":98.1631,"RA_OF_ASC_NODE":150.8872,"ARG_OF_PERICENTER":91.4057,"MEAN_ANOMALY":268.7755,"EPHEMERIS_TYPE":0,"CLASSIFICATION_TYPE":"U","NORAD_CAT_ID":25979,"ELEMENT_SET_NO":999,"REV_AT_EPOCH":42869,"BSTAR":0.00066758353,"MEAN_MOTION_DOT":0.00020173,"MEAN_MOTION_DDOT":0}]
